STARLINK-36557          
1 67500U 26012H   26037.58335648 -.01945279  00000+0 -16002-1 0  9997
2 67500  42.9989 132.1996 0001178 282.4096 311.5580 15.72428944  4069
STARLINK-36433          
1 67501U 26012J   26037.58335648 -.01939459  00000+0 -15703-1 0  9998
2 67501  42.9989 132.1816 0001247 278.7897 322.3145 15.72786761  4066
STARLINK-36554          
1 67502U 26012K   26037.58335648 -.01943578  00000+0 -19236-1 0  9991
2 67502  42.9987 132.2916 0001227 283.4566 274.2232 15.68048357  4015
STARLINK-36552          
1 67503U 26012L   26037.58335648 -.01902882  00000+0 -15043-1 0  9997
2 67503  42.9989 132.1402 0001196 281.7925 335.7890 15.73806766  4062
STARLINK-36512          
1 67504U 26012M   26037.58335648 -.01941872  00000+0 -16405-1 0  9993
2 67504  42.9990 132.1661 0001187 281.5491 325.4673 15.71804611  4068
STARLINK-36545          
1 67505U 26012N   26037.58335648 -.01939593  00000+0 -15993-1 0  9992
2 67505  42.9989 132.1466 0001204 278.3992 336.5062 15.72365710  4068
STARLINK-36553          
1 67506U 26012P   26037.58335648 -.01899507  00000+0 -15072-1 0  9991
2 67506  42.9990 132.1097 0001349 275.6201 354.0508 15.73714247  4068
STARLINK-36521          
1 67507U 26012Q   26037.58335648 -.01904420  00000+0 -15144-1 0  9993
2 67507  42.9989 132.0966 0001378 278.6053 356.1632 15.73672394  4068
STARLINK-36526          
1 67508U 26012R   26037.58335648 -.01902292  00000+0 -15140-1 0  9995
2 67508  42.9990 132.0825 0001219 277.5477   2.7906 15.73651793  4065
STARLINK-36541          
1 67509U 26012S   26037.58335648 -.02187560  00000+0 -34121-1 0  9990
2 67509  42.9994 132.6282 0001654 277.9673 143.0415 15.56365119  4012
STARLINK-36549          
1 67510U 26012T   26037.58335648 -.01938524  00000+0 -16148-1 0  9994
2 67510  42.9992 131.8845 0001437 282.7279  74.8226 15.72124251  4012
STARLINK-36540          
1 67511U 26012U   26037.58335648 -.02334411  00000+0 -36338-1 0  9994
2 67511  42.9991 132.6071 0001381 291.9990 137.6127 15.56656014  4075
