CCSDS_OMM_VERS = 2.0
CREATION_DATE  = 
ORIGINATOR     = 

OBJECT_NAME    = STARLINK-36557
OBJECT_ID      = 2026-012H
CENTER_NAME    = EARTH
REF_FRAME      = TEME
TIME_SYSTEM    = UTC
MEAN_ELEMENT_THEORY = SGP/SGP4

EPOCH          = 2026-02-06T14:00:01.999872
MEAN_MOTION    = 15.72428944
ECCENTRICITY   = .00011788
INCLINATION    = 42.9989
RA_OF_ASC_NODE = 132.1996
ARG_OF_PERICENTER = 282.4096
MEAN_ANOMALY   = 311.5580

EPHEMERIS_TYPE = 0
CLASSIFICATION_TYPE = U
NORAD_CAT_ID   = 67500
ELEMENT_SET_NO = 999
REV_AT_EPOCH   = 406
BSTAR          = -.16002165E-1
MEAN_MOTION_DOT = -.1945279E-1
MEAN_MOTION_DDOT = 0

CCSDS_OMM_VERS = 2.0
CREATION_DATE  = 
ORIGINATOR     = 

OBJECT_NAME    = STARLINK-36433
OBJECT_ID      = 2026-012J
CENTER_NAME    = EARTH
REF_FRAME      = TEME
TIME_SYSTEM    = UTC
MEAN_ELEMENT_THEORY = SGP/SGP4

EPOCH          = 2026-02-06T14:00:01.999872
MEAN_MOTION    = 15.72786761
ECCENTRICITY   = .00012476
INCLINATION    = 42.9989
RA_OF_ASC_NODE = 132.1816
ARG_OF_PERICENTER = 278.7897
MEAN_ANOMALY   = 322.3145

EPHEMERIS_TYPE = 0
CLASSIFICATION_TYPE = U
NORAD_CAT_ID   = 67501
ELEMENT_SET_NO = 999
REV_AT_EPOCH   = 406
BSTAR          = -.15703211E-1
MEAN_MOTION_DOT = -.1939459E-1
MEAN_MOTION_DDOT = 0

CCSDS_OMM_VERS = 2.0
CREATION_DATE  = 
ORIGINATOR     = 

OBJECT_NAME    = STARLINK-36554
OBJECT_ID      = 2026-012K
CENTER_NAME    = EARTH
REF_FRAME      = TEME
TIME_SYSTEM    = UTC
MEAN_ELEMENT_THEORY = SGP/SGP4

EPOCH          = 2026-02-06T14:00:01.999872
MEAN_MOTION    = 15.68048357
ECCENTRICITY   = .00012276
INCLINATION    = 42.9987
RA_OF_ASC_NODE = 132.2916
ARG_OF_PERICENTER = 283.4566
MEAN_ANOMALY   = 274.2232

EPHEMERIS_TYPE = 0
CLASSIFICATION_TYPE = U
NORAD_CAT_ID   = 67502
ELEMENT_SET_NO = 999
REV_AT_EPOCH   = 401
BSTAR          = -.19236095E-1
MEAN_MOTION_DOT = -.1943578E-1
MEAN_MOTION_DDOT = 0

CCSDS_OMM_VERS = 2.0
CREATION_DATE  = 
ORIGINATOR     = 

OBJECT_NAME    = STARLINK-36552
OBJECT_ID      = 2026-012L
CENTER_NAME    = EARTH
REF_FRAME      = TEME
TIME_SYSTEM    = UTC
MEAN_ELEMENT_THEORY = SGP/SGP4

EPOCH          = 2026-02-06T14:00:01.999872
MEAN_MOTION    = 15.73806766
ECCENTRICITY   = .00011965
INCLINATION    = 42.9989
RA_OF_ASC_NODE = 132.1402
ARG_OF_PERICENTER = 281.7925
MEAN_ANOMALY   = 335.7890

EPHEMERIS_TYPE = 0
CLASSIFICATION_TYPE = U
NORAD_CAT_ID   = 67503
ELEMENT_SET_NO = 999
REV_AT_EPOCH   = 406
BSTAR          = -.15043073E-1
MEAN_MOTION_DOT = -.1902882E-1
MEAN_MOTION_DDOT = 0

CCSDS_OMM_VERS = 2.0
CREATION_DATE  = 
ORIGINATOR     = 

OBJECT_NAME    = STARLINK-36512
OBJECT_ID      = 2026-012M
CENTER_NAME    = EARTH
REF_FRAME      = TEME
TIME_SYSTEM    = UTC
MEAN_ELEMENT_THEORY = SGP/SGP4

EPOCH          = 2026-02-06T14:00:01.999872
MEAN_MOTION    = 15.71804611
ECCENTRICITY   = .00011875
INCLINATION    = 42.9990
RA_OF_ASC_NODE = 132.1661
ARG_OF_PERICENTER = 281.5491
MEAN_ANOMALY   = 325.4673

EPHEMERIS_TYPE = 0
CLASSIFICATION_TYPE = U
NORAD_CAT_ID   = 67504
ELEMENT_SET_NO = 999
REV_AT_EPOCH   = 406
BSTAR          = -.1640467E-1
MEAN_MOTION_DOT = -.1941872E-1
MEAN_MOTION_DDOT = 0

CCSDS_OMM_VERS = 2.0
CREATION_DATE  = 
ORIGINATOR     = 

OBJECT_NAME    = STARLINK-36545
OBJECT_ID      = 2026-012N
CENTER_NAME    = EARTH
REF_FRAME      = TEME
TIME_SYSTEM    = UTC
MEAN_ELEMENT_THEORY = SGP/SGP4

EPOCH          = 2026-02-06T14:00:01.999872
MEAN_MOTION    = 15.72365710
ECCENTRICITY   = .00012048
INCLINATION    = 42.9989
RA_OF_ASC_NODE = 132.1466
ARG_OF_PERICENTER = 278.3992
MEAN_ANOMALY   = 336.5062

EPHEMERIS_TYPE = 0
CLASSIFICATION_TYPE = U
NORAD_CAT_ID   = 67505
ELEMENT_SET_NO = 999
REV_AT_EPOCH   = 406
BSTAR          = -.15992668E-1
MEAN_MOTION_DOT = -.1939593E-1
MEAN_MOTION_DDOT = 0

CCSDS_OMM_VERS = 2.0
CREATION_DATE  = 
ORIGINATOR     = 

OBJECT_NAME    = STARLINK-36553
OBJECT_ID      = 2026-012P
CENTER_NAME    = EARTH
REF_FRAME      = TEME
TIME_SYSTEM    = UTC
MEAN_ELEMENT_THEORY = SGP/SGP4

EPOCH          = 2026-02-06T14:00:01.999872
MEAN_MOTION    = 15.73714247
ECCENTRICITY   = .00013494
INCLINATION    = 42.9990
RA_OF_ASC_NODE = 132.1097
ARG_OF_PERICENTER = 275.6201
MEAN_ANOMALY   = 354.0508

EPHEMERIS_TYPE = 0
CLASSIFICATION_TYPE = U
NORAD_CAT_ID   = 67506
ELEMENT_SET_NO = 999
REV_AT_EPOCH   = 406
BSTAR          = -.15071811E-1
MEAN_MOTION_DOT = -.1899507E-1
MEAN_MOTION_DDOT = 0

CCSDS_OMM_VERS = 2.0
CREATION_DATE  = 
ORIGINATOR     = 

OBJECT_NAME    = STARLINK-36521
OBJECT_ID      = 2026-012Q
CENTER_NAME    = EARTH
REF_FRAME      = TEME
TIME_SYSTEM    = UTC
MEAN_ELEMENT_THEORY = SGP/SGP4

EPOCH          = 2026-02-06T14:00:01.999872
MEAN_MOTION    = 15.73672394
ECCENTRICITY   = .00013784
INCLINATION    = 42.9989
RA_OF_ASC_NODE = 132.0966
ARG_OF_PERICENTER = 278.6053
MEAN_ANOMALY   = 356.1632

EPHEMERIS_TYPE = 0
CLASSIFICATION_TYPE = U
NORAD_CAT_ID   = 67507
ELEMENT_SET_NO = 999
REV_AT_EPOCH   = 406
BSTAR          = -.15144367E-1
MEAN_MOTION_DOT = -.190442E-1
MEAN_MOTION_DDOT = 0

CCSDS_OMM_VERS = 2.0
CREATION_DATE  = 
ORIGINATOR     = 

OBJECT_NAME    = STARLINK-36526
OBJECT_ID      = 2026-012R
CENTER_NAME    = EARTH
REF_FRAME      = TEME
TIME_SYSTEM    = UTC
MEAN_ELEMENT_THEORY = SGP/SGP4

EPOCH          = 2026-02-06T14:00:01.999872
MEAN_MOTION    = 15.73651793
ECCENTRICITY   = .00012197
INCLINATION    = 42.9990
RA_OF_ASC_NODE = 132.0825
ARG_OF_PERICENTER = 277.5477
MEAN_ANOMALY   = 2.7906

EPHEMERIS_TYPE = 0
CLASSIFICATION_TYPE = U
NORAD_CAT_ID   = 67508
ELEMENT_SET_NO = 999
REV_AT_EPOCH   = 406
BSTAR          = -.15139699E-1
MEAN_MOTION_DOT = -.1902292E-1
MEAN_MOTION_DDOT = 0

CCSDS_OMM_VERS = 2.0
CREATION_DATE  = 
ORIGINATOR     = 

OBJECT_NAME    = STARLINK-36541
OBJECT_ID      = 2026-012S
CENTER_NAME    = EARTH
REF_FRAME      = TEME
TIME_SYSTEM    = UTC
MEAN_ELEMENT_THEORY = SGP/SGP4

EPOCH          = 2026-02-06T14:00:01.999872
MEAN_MOTION    = 15.56365119
ECCENTRICITY   = .00016543
INCLINATION    = 42.9994
RA_OF_ASC_NODE = 132.6282
ARG_OF_PERICENTER = 277.9673
MEAN_ANOMALY   = 143.0415

EPHEMERIS_TYPE = 0
CLASSIFICATION_TYPE = U
NORAD_CAT_ID   = 67509
ELEMENT_SET_NO = 999
REV_AT_EPOCH   = 401
BSTAR          = -.34120606E-1
MEAN_MOTION_DOT = -.218756E-1
MEAN_MOTION_DDOT = 0

CCSDS_OMM_VERS = 2.0
CREATION_DATE  = 
ORIGINATOR     = 

OBJECT_NAME    = STARLINK-36549
OBJECT_ID      = 2026-012T
CENTER_NAME    = EARTH
REF_FRAME      = TEME
TIME_SYSTEM    = UTC
MEAN_ELEMENT_THEORY = SGP/SGP4

EPOCH          = 2026-02-06T14:00:01.999872
MEAN_MOTION    = 15.72124251
ECCENTRICITY   = .00014379
INCLINATION    = 42.9992
RA_OF_ASC_NODE = 131.8845
ARG_OF_PERICENTER = 282.7279
MEAN_ANOMALY   = 74.8226

EPHEMERIS_TYPE = 0
CLASSIFICATION_TYPE = U
NORAD_CAT_ID   = 67510
ELEMENT_SET_NO = 999
REV_AT_EPOCH   = 401
BSTAR          = -.1614789E-1
MEAN_MOTION_DOT = -.1938524E-1
MEAN_MOTION_DDOT = 0

CCSDS_OMM_VERS = 2.0
CREATION_DATE  = 
ORIGINATOR     = 

OBJECT_NAME    = STARLINK-36540
OBJECT_ID      = 2026-012U
CENTER_NAME    = EARTH
REF_FRAME      = TEME
TIME_SYSTEM    = UTC
MEAN_ELEMENT_THEORY = SGP/SGP4

EPOCH          = 2026-02-06T14:00:01.999872
MEAN_MOTION    = 15.56656014
ECCENTRICITY   = .00013815
INCLINATION    = 42.9991
RA_OF_ASC_NODE = 132.6071
ARG_OF_PERICENTER = 291.9990
MEAN_ANOMALY   = 137.6127

EPHEMERIS_TYPE = 0
CLASSIFICATION_TYPE = U
NORAD_CAT_ID   = 67511
ELEMENT_SET_NO = 999
REV_AT_EPOCH   = 407
BSTAR          = -.3633849E-1
MEAN_MOTION_DOT = -.2334411E-1
MEAN_MOTION_DDOT = 0

